[{"OBJECT_NAME":"BLACKJACK ACES-1","OBJECT_ID":"2023-084AA","EPOCH":"2026-03-15T06:22:11.541504","MEAN_MOTION":15.20291841,"ECCENTRICITY":6.172e-5,"INCLINATION":97.6019,"RA_OF_ASC_NODE":208.69,"ARG_OF_PERICENTER":194.8228,"MEAN_ANOMALY":165.2988,"EPHEMERIS_TYPE":0,"CLASSIFICATION_TYPE":"U","NORAD_CAT_ID":56956,"ELEMENT_SET_NO":999,"REV_AT_EPOCH":10264,"BSTAR":0.0005538449,"MEAN_MOTION_DOT":0.0001197,"MEAN_MOTION_DDOT":0},{"OBJECT_NAME":"ION SCV-011","OBJECT_ID":"2023-084AB","EPOCH":"2026-03-15T01:11:42.562752","MEAN_MOTION":15.27827932,"ECCENTRICITY":0.00075093,"INCLINATION":98.1354,"RA_OF_ASC_NODE":252.6781,"ARG_OF_PERICENTER":14.0912,"MEAN_ANOMALY":346.0533,"EPHEMERIS_TYPE":0,"CLASSIFICATION_TYPE":"U","NORAD_CAT_ID":56957,"ELEMENT_SET_NO":999,"REV_AT_EPOCH":15143,"BSTAR":0.00028980864,"MEAN_MOTION_DOT":7.796e-5,"MEAN_MOTION_DDOT":0},{"OBJECT_NAME":"GHOST-3","OBJECT_ID":"2023-084AC","EPOCH":"2026-03-14T22:31:59.731392","MEAN_MOTION":15.44438962,"ECCENTRICITY":0.00065184,"INCLINATION":97.606,"RA_OF_ASC_NODE":217.772,"ARG_OF_PERICENTER":273.6306,"MEAN_ANOMALY":86.4197,"EPHEMERIS_TYPE":0,"CLASSIFICATION_TYPE":"U","NORAD_CAT_ID":56958,"ELEMENT_SET_NO":999,"REV_AT_EPOCH":15345,"BSTAR":0.00053832901,"MEAN_MOTION_DOT":0.00024874,"MEAN_MOTION_DDOT":0},{"OBJECT_NAME":"TOMORROW-R2","OBJECT_ID":"2023-084AG","EPOCH":"2026-03-15T04:05:16.124928","MEAN_MOTION":15.73057344,"ECCENTRICITY":0.00052701,"INCLINATION":97.5891,"RA_OF_ASC_NODE":227.9236,"ARG_OF_PERICENTER":231.0612,"MEAN_ANOMALY":129.0182,"EPHEMERIS_TYPE":0,"CLASSIFICATION_TYPE":"U","NORAD_CAT_ID":56962,"ELEMENT_SET_NO":999,"REV_AT_EPOCH":15415,"BSTAR":0.0008011801,"MEAN_MOTION_DOT":0.00110446,"MEAN_MOTION_DDOT":0},{"OBJECT_NAME":"AFR-1","OBJECT_ID":"2023-084AJ","EPOCH":"2026-03-15T06:22:36.398784","MEAN_MOTION":15.27616961,"ECCENTRICITY":0.00095859,"INCLINATION":97.6102,"RA_OF_ASC_NODE":208.8462,"ARG_OF_PERICENTER":314.6866,"MEAN_ANOMALY":45.3591,"EPHEMERIS_TYPE":0,"CLASSIFICATION_TYPE":"U","NORAD_CAT_ID":56964,"ELEMENT_SET_NO":999,"REV_AT_EPOCH":15288,"BSTAR":0.00024840043,"MEAN_MOTION_DOT":6.637e-5,"MEAN_MOTION_DDOT":0},{"OBJECT_NAME":"METEOR-M2 3","OBJECT_ID":"2023-091A","EPOCH":"2026-03-15T07:09:14.309856","MEAN_MOTION":14.24038213,"ECCENTRICITY":0.00050971,"INCLINATION":98.6202,"RA_OF_ASC_NODE":131.1499,"ARG_OF_PERICENTER":86.5453,"MEAN_ANOMALY":273.6309,"EPHEMERIS_TYPE":0,"CLASSIFICATION_TYPE":"U","NORAD_CAT_ID":57166,"ELEMENT_SET_NO":999,"REV_AT_EPOCH":14115,"BSTAR":2.0071689e-5,"MEAN_MOTION_DOT":3.0e-8,"MEAN_MOTION_DDOT":0},{"OBJECT_NAME":"UMKA 1 (RS40S)","OBJECT_ID":"2023-091G","EPOCH":"2026-03-15T07:13:11.271360","MEAN_MOTION":15.19689977,"ECCENTRICITY":0.00146552,"INCLINATION":97.5173,"RA_OF_ASC_NODE":133.3843,"ARG_OF_PERICENTER":88.663,"MEAN_ANOMALY":271.6284,"EPHEMERIS_TYPE":0,"CLASSIFICATION_TYPE":"U","NORAD_CAT_ID":57172,"ELEMENT_SET_NO":999,"REV_AT_EPOCH":14974,"BSTAR":0.00038966277,"MEAN_MOTION_DOT":8.274e-5,"MEAN_MOTION_DDOT":0},{"OBJECT_NAME":"2023-091H","OBJECT_ID":"2023-091H","EPOCH":"2026-03-15T06:00:53.253504","MEAN_MOTION":15.26537228,"ECCENTRICITY":0.00117047,"INCLINATION":97.5164,"RA_OF_ASC_NODE":136.781,"ARG_OF_PERICENTER":87.6878,"MEAN_ANOMALY":272.5701,"EPHEMERIS_TYPE":0,"CLASSIFICATION_TYPE":"U","NORAD_CAT_ID":57173,"ELEMENT_SET_NO":999,"REV_AT_EPOCH":14996,"BSTAR":0.00056508215,"MEAN_MOTION_DOT":0.00014735,"MEAN_MOTION_DDOT":0},{"OBJECT_NAME":"2023-091J","OBJECT_ID":"2023-091J","EPOCH":"2026-03-15T07:30:40.281408","MEAN_MOTION":15.13252565,"ECCENTRICITY":0.00149848,"INCLINATION":97.5183,"RA_OF_ASC_NODE":128.7368,"ARG_OF_PERICENTER":110.5166,"MEAN_ANOMALY":249.7675,"EPHEMERIS_TYPE":0,"CLASSIFICATION_TYPE":"U","NORAD_CAT_ID":57174,"ELEMENT_SET_NO":999,"REV_AT_EPOCH":14943,"BSTAR":0.00025502825,"MEAN_MOTION_DOT":4.48e-5,"MEAN_MOTION_DDOT":0},{"OBJECT_NAME":"CUBEBEL 2 (EU11S)","OBJECT_ID":"2023-091K","EPOCH":"2026-03-15T06:39:19.857024","MEAN_MOTION":15.26868843,"ECCENTRICITY":0.00117855,"INCLINATION":97.5168,"RA_OF_ASC_NODE":136.7688,"ARG_OF_PERICENTER":89.3995,"MEAN_ANOMALY":270.8594,"EPHEMERIS_TYPE":0,"CLASSIFICATION_TYPE":"U","NORAD_CAT_ID":57175,"ELEMENT_SET_NO":999,"REV_AT_EPOCH":14996,"BSTAR":0.00055465268,"MEAN_MOTION_DOT":0.00014608,"MEAN_MOTION_DDOT":0},{"OBJECT_NAME":"SITRO-AIS 5 (KATYS)","OBJECT_ID":"2023-091L","EPOCH":"2026-03-15T07:33:41.921856","MEAN_MOTION":15.27242357,"ECCENTRICITY":0.00131955,"INCLINATION":97.5175,"RA_OF_ASC_NODE":137.4302,"ARG_OF_PERICENTER":77.5948,"MEAN_ANOMALY":282.6766,"EPHEMERIS_TYPE":0,"CLASSIFICATION_TYPE":"U","NORAD_CAT_ID":57176,"ELEMENT_SET_NO":999,"REV_AT_EPOCH":15000,"BSTAR":0.00055049553,"MEAN_MOTION_DOT":0.0001467,"MEAN_MOTION_DDOT":0},{"OBJECT_NAME":"ZORKIY-2M 1","OBJECT_ID":"2023-091M","EPOCH":"2026-03-15T06:54:34.716384","MEAN_MOTION":15.19624721,"ECCENTRICITY":0.00152586,"INCLINATION":97.5215,"RA_OF_ASC_NODE":133.5875,"ARG_OF_PERICENTER":86.0022,"MEAN_ANOMALY":274.2957,"EPHEMERIS_TYPE":0,"CLASSIFICATION_TYPE":"U","NORAD_CAT_ID":57177,"ELEMENT_SET_NO":999,"REV_AT_EPOCH":14973,"BSTAR":0.00042833054,"MEAN_MOTION_DOT":9.088e-5,"MEAN_MOTION_DDOT":0},{"OBJECT_NAME":"CUBESX-HSE 3 (RS42S)","OBJECT_ID":"2023-091N","EPOCH":"2026-03-15T07:46:34.306752","MEAN_MOTION":15.28792745,"ECCENTRICITY":0.0012439,"INCLINATION":97.5202,"RA_OF_ASC_NODE":138.8519,"ARG_OF_PERICENTER":69.5644,"MEAN_ANOMALY":290.693,"EPHEMERIS_TYPE":0,"CLASSIFICATION_TYPE":"U","NORAD_CAT_ID":57178,"ELEMENT_SET_NO":999,"REV_AT_EPOCH":15007,"BSTAR":0.00059502839,"MEAN_MOTION_DOT":0.00016631,"MEAN_MOTION_DDOT":0},{"OBJECT_NAME":"MONITOR-3 (RS58S)","OBJECT_ID":"2023-091Q","EPOCH":"2026-03-15T06:53:21.118272","MEAN_MOTION":15.25892822,"ECCENTRICITY":0.00135141,"INCLINATION":97.5197,"RA_OF_ASC_NODE":137.1333,"ARG_OF_PERICENTER":74.4435,"MEAN_ANOMALY":285.8294,"EPHEMERIS_TYPE":0,"CLASSIFICATION_TYPE":"U","NORAD_CAT_ID":57180,"ELEMENT_SET_NO":999,"REV_AT_EPOCH":14996,"BSTAR":0.00050634617,"MEAN_MOTION_DOT":0.00012947,"MEAN_MOTION_DDOT":0},{"OBJECT_NAME":"MONITOR-4 (RS57S)","OBJECT_ID":"2023-091S","EPOCH":"2026-03-15T06:31:28.664256","MEAN_MOTION":15.25979844,"ECCENTRICITY":0.00134687,"INCLINATION":97.5191,"RA_OF_ASC_NODE":137.0832,"ARG_OF_PERICENTER":74.9429,"MEAN_ANOMALY":285.3298,"EPHEMERIS_TYPE":0,"CLASSIFICATION_TYPE":"U","NORAD_CAT_ID":57182,"ELEMENT_SET_NO":999,"REV_AT_EPOCH":14996,"BSTAR":0.00052858797,"MEAN_MOTION_DOT":0.00013555,"MEAN_MOTION_DDOT":0},{"OBJECT_NAME":"MONITOR-2 (RS39S)","OBJECT_ID":"2023-091U","EPOCH":"2026-03-15T06:37:58.474272","MEAN_MOTION":15.17989612,"ECCENTRICITY":0.00130036,"INCLINATION":97.5197,"RA_OF_ASC_NODE":133.1762,"ARG_OF_PERICENTER":81.8379,"MEAN_ANOMALY":278.4329,"EPHEMERIS_TYPE":0,"CLASSIFICATION_TYPE":"U","NORAD_CAT_ID":57184,"ELEMENT_SET_NO":999,"REV_AT_EPOCH":14970,"BSTAR":0.00030521003,"MEAN_MOTION_DOT":6.149e-5,"MEAN_MOTION_DDOT":0}]
