BLACKJACK ACES-1        
1 56956U 23084AA  26074.26541136  .00011970  00000+0  55384-3 0  9990
2 56956  97.6019 208.6900 0000617 194.8228 165.2988 15.20291841102643
ION SCV-011             
1 56957U 23084AB  26074.04979818  .00007796  00000+0  28981-3 0  9993
2 56957  98.1354 252.6781 0007509  14.0912 346.0533 15.27827932151437
GHOST-3                 
1 56958U 23084AC  26073.93888578  .00024874  00000+0  53833-3 0  9993
2 56958  97.6060 217.7720 0006518 273.6306  86.4197 15.44438962153455
TOMORROW-R2             
1 56962U 23084AG  26074.17032552  .00110446  00000+0  80118-3 0  9995
2 56962  97.5891 227.9236 0005270 231.0612 129.0182 15.73057344154157
AFR-1                   
1 56964U 23084AJ  26074.26569906  .00006637  00000+0  24840-3 0  9991
2 56964  97.6102 208.8462 0009585 314.6866  45.3591 15.27616961152883
METEOR-M2 3             
1 57166U 23091A   26074.29808229  .00000003  00000+0  20072-4 0  9996
2 57166  98.6202 131.1499 0005097  86.5453 273.6309 14.24038213141154
UMKA 1 (RS40S)          
1 57172U 23091G   26074.30082490  .00008274  00000+0  38966-3 0  9997
2 57172  97.5173 133.3843 0014655  88.6630 271.6284 15.19689977149740
2023-091H               
1 57173U 23091H   26074.25061636  .00014735  00000+0  56508-3 0  9992
2 57173  97.5164 136.7810 0011704  87.6878 272.5701 15.26537228149964
2023-091J               
1 57174U 23091J   26074.31296622  .00004480  00000+0  25503-3 0  9992
2 57174  97.5183 128.7368 0014984 110.5166 249.7675 15.13252565149436
CUBEBEL 2 (EU11S)       
1 57175U 23091K   26074.27731316  .00014608  00000+0  55465-3 0  9995
2 57175  97.5168 136.7688 0011785  89.3995 270.8594 15.26868843149962
SITRO-AIS 5 (KATYS)     
1 57176U 23091L   26074.31506854  .00014670  00000+0  55050-3 0  9997
2 57176  97.5175 137.4302 0013195  77.5948 282.6766 15.27242357150002
ZORKIY-2M 1             
1 57177U 23091M   26074.28790181  .00009088  00000+0  42833-3 0  9994
2 57177  97.5215 133.5875 0015258  86.0022 274.2957 15.19624721149737
CUBESX-HSE 3 (RS42S)    
1 57178U 23091N   26074.32400818  .00016631  00000+0  59503-3 0  9999
2 57178  97.5202 138.8519 0012439  69.5644 290.6930 15.28792745150075
MONITOR-3 (RS58S)       
1 57180U 23091Q   26074.28704998  .00012947  00000+0  50635-3 0  9996
2 57180  97.5197 137.1333 0013514  74.4435 285.8294 15.25892822149964
MONITOR-4 (RS57S)       
1 57182U 23091S   26074.27185954  .00013555  00000+0  52859-3 0  9998
2 57182  97.5191 137.0832 0013468  74.9429 285.3298 15.25979844149968
MONITOR-2 (RS39S)       
1 57184U 23091U   26074.27637123  .00006149  00000+0  30521-3 0  9993
2 57184  97.5197 133.1762 0013003  81.8379 278.4329 15.17989612149706
